[
    {
        "Altitude(m)": 702934.7749422844,
        "Argument of Periapsis(deg)": 0.009112096949301655,
        "Eccentricity": 0.0,
        "Inclination(deg)": 45.0,
        "Latitude(deg)": 5.002726961939792,
        "Longitude(deg)": -20.607849295377886,
        "Mean Anomaly(deg)": -187.13702668201535,
        "RAAN(deg)": 264.9913984468334,
        "Satellite Name": "Constellation 1 1176",
        "Satellite Number": 1176,
        "Semi-Major Axis(m)": 7083131.272910544,
        "Time(s)": 152
    },
    {
        "Altitude(m)": 702937.9805745982,
        "Argument of Periapsis(deg)": 0.009172044955547059,
        "Eccentricity": 0.0,
        "Inclination(deg)": 45.0,
        "Latitude(deg)": 4.959670230171423,
        "Longitude(deg)": -20.568770117336484,
        "Mean Anomaly(deg)": -187.07632554176539,
        "RAAN(deg)": 264.99134185766786,
        "Satellite Name": "Constellation 1 1176",
        "Satellite Number": 1176,
        "Semi-Major Axis(m)": 7083131.272910544,
        "Time(s)": 153
    },
    {
        "Altitude(m)": 702941.2069652405,
        "Argument of Periapsis(deg)": 0.009231992961792466,
        "Eccentricity": 0.0,
        "Inclination(deg)": 45.0,
        "Latitude(deg)": 4.916610676955144,
        "Longitude(deg)": -20.529696586612754,
        "Mean Anomaly(deg)": -187.01562440151554,
        "RAAN(deg)": 264.9912852685023,
        "Satellite Name": "Constellation 1 1176",
        "Satellite Number": 1176,
        "Semi-Major Axis(m)": 7083131.272910544,
        "Time(s)": 154
    },
    {
        "Altitude(m)": 702944.4541184723,
        "Argument of Periapsis(deg)": 0.009291940968037872,
        "Eccentricity": 0.0,
        "Inclination(deg)": 45.0,
        "Latitude(deg)": 4.873548327860024,
        "Longitude(deg)": -20.490628654162347,
        "Mean Anomaly(deg)": -186.9549232612656,
        "RAAN(deg)": 264.99122867933676,
        "Satellite Name": "Constellation 1 1176",
        "Satellite Number": 1176,
        "Semi-Major Axis(m)": 7083131.272910544,
        "Time(s)": 155
    },
    {
        "Altitude(m)": 702947.7220384579,
        "Argument of Periapsis(deg)": 0.009351888974283276,
        "Eccentricity": 0.0,
        "Inclination(deg)": 45.0,
        "Latitude(deg)": 4.830483208444083,
        "Longitude(deg)": -20.451566439050126,
        "Mean Anomaly(deg)": -186.8942221210158,
        "RAAN(deg)": 264.9911720901712,
        "Satellite Name": "Constellation 1 1176",
        "Satellite Number": 1176,
        "Semi-Major Axis(m)": 7083131.272910544,
        "Time(s)": 156
    },
    {
        "Altitude(m)": 702951.0107292668,
        "Argument of Periapsis(deg)": 0.00941183698052868,
        "Eccentricity": 0.0,
        "Inclination(deg)": 45.0,
        "Latitude(deg)": 4.787415344255515,
        "Longitude(deg)": -20.412509556062712,
        "Mean Anomaly(deg)": -186.8335209807658,
        "RAAN(deg)": 264.9911155010056,
        "Satellite Name": "Constellation 1 1176",
        "Satellite Number": 1176,
        "Semi-Major Axis(m)": 7083131.272910544,
        "Time(s)": 157
    },
    {
        "Altitude(m)": 702954.3201948876,
        "Argument of Periapsis(deg)": 0.009471784986774088,
        "Eccentricity": 0.0,
        "Inclination(deg)": 45.0,
        "Latitude(deg)": 4.744344760831203,
        "Longitude(deg)": -20.373458124289936,
        "Mean Anomaly(deg)": -186.77281984051595,
        "RAAN(deg)": 264.99105891184,
        "Satellite Name": "Constellation 1 1176",
        "Satellite Number": 1176,
        "Semi-Major Axis(m)": 7083131.272910544,
        "Time(s)": 158
    },
    {
        "Altitude(m)": 702957.650439208,
        "Argument of Periapsis(deg)": 0.009531732993019492,
        "Eccentricity": 0.0,
        "Inclination(deg)": 45.0,
        "Latitude(deg)": 4.701271483697719,
        "Longitude(deg)": -20.334412094736663,
        "Mean Anomaly(deg)": -186.71211870026607,
        "RAAN(deg)": 264.99100232267443,
        "Satellite Name": "Constellation 1 1176",
        "Satellite Number": 1176,
        "Semi-Major Axis(m)": 7083131.272910544,
        "Time(s)": 159
    },
    {
        "Altitude(m)": 702961.0014660185,
        "Argument of Periapsis(deg)": 0.009591680999264898,
        "Eccentricity": 0.0,
        "Inclination(deg)": 45.0,
        "Latitude(deg)": 4.6581955383712925,
        "Longitude(deg)": -20.295371418420086,
        "Mean Anomaly(deg)": -186.65141756001614,
        "RAAN(deg)": 264.9909457335089,
        "Satellite Name": "Constellation 1 1176",
        "Satellite Number": 1176,
        "Semi-Major Axis(m)": 7083131.272910544,
        "Time(s)": 160
    },
    {
        "Altitude(m)": 702964.3732790361,
        "Argument of Periapsis(deg)": 0.009651629005510304,
        "Eccentricity": 0.0,
        "Inclination(deg)": 45.0,
        "Latitude(deg)": 4.615116950357879,
        "Longitude(deg)": -20.256336046369217,
        "Mean Anomaly(deg)": -186.59071641976624,
        "RAAN(deg)": 264.9908891443433,
        "Satellite Name": "Constellation 1 1176",
        "Satellite Number": 1176,
        "Semi-Major Axis(m)": 7083131.272910544,
        "Time(s)": 161
    },
    {
        "Altitude(m)": 702967.765881868,
        "Argument of Periapsis(deg)": 0.00971157701175571,
        "Eccentricity": 0.0,
        "Inclination(deg)": 45.0,
        "Latitude(deg)": 4.572035745153284,
        "Longitude(deg)": -20.21730592962516,
        "Mean Anomaly(deg)": -186.53001527951633,
        "RAAN(deg)": 264.99083255517775,
        "Satellite Name": "Constellation 1 1176",
        "Satellite Number": 1176,
        "Semi-Major Axis(m)": 7083131.272910544,
        "Time(s)": 162
    },
    {
        "Altitude(m)": 702971.1792780379,
        "Argument of Periapsis(deg)": 0.009771525018001118,
        "Eccentricity": 0.0,
        "Inclination(deg)": 45.0,
        "Latitude(deg)": 4.52895194824284,
        "Longitude(deg)": -20.178281187337756,
        "Mean Anomaly(deg)": -186.4693141392664,
        "RAAN(deg)": 264.99077596601217,
        "Satellite Name": "Constellation 1 1176",
        "Satellite Number": 1176,
        "Semi-Major Axis(m)": 7083131.272910544,
        "Time(s)": 163
    },
    {
        "Altitude(m)": 702974.6134709704,
        "Argument of Periapsis(deg)": 0.00983147302424652,
        "Eccentricity": 0.0,
        "Inclination(deg)": 45.0,
        "Latitude(deg)": 4.485865585102798,
        "Longitude(deg)": -20.139261434377342,
        "Mean Anomaly(deg)": -186.40861299901655,
        "RAAN(deg)": 264.9907193768466,
        "Satellite Name": "Constellation 1 1176",
        "Satellite Number": 1176,
        "Semi-Major Axis(m)": 7083131.272910544,
        "Time(s)": 164
    },
    {
        "Altitude(m)": 702978.0684640062,
        "Argument of Periapsis(deg)": 0.009891421030491928,
        "Eccentricity": 0.0,
        "Inclination(deg)": 45.0,
        "Latitude(deg)": 4.442776681198505,
        "Longitude(deg)": -20.100246789917097,
        "Mean Anomaly(deg)": -186.34791185876662,
        "RAAN(deg)": 264.99066278768106,
        "Satellite Name": "Constellation 1 1176",
        "Satellite Number": 1176,
        "Semi-Major Axis(m)": 7083131.272910544,
        "Time(s)": 165
    },
    {
        "Altitude(m)": 702981.5442603944,
        "Argument of Periapsis(deg)": 0.009951369036737332,
        "Eccentricity": 0.0,
        "Inclination(deg)": 45.0,
        "Latitude(deg)": 4.399685261985965,
        "Longitude(deg)": -20.061237205044545,
        "Mean Anomaly(deg)": -186.28721071851675,
        "RAAN(deg)": 264.9906061985155,
        "Satellite Name": "Constellation 1 1176",
        "Satellite Number": 1176,
        "Semi-Major Axis(m)": 7083131.272910544,
        "Time(s)": 166
    },
    {
        "Altitude(m)": 702985.0408632825,
        "Argument of Periapsis(deg)": 0.010011317042982738,
        "Eccentricity": 0.0,
        "Inclination(deg)": 45.0,
        "Latitude(deg)": 4.356591352911286,
        "Longitude(deg)": -20.022232630858582,
        "Mean Anomaly(deg)": -186.22650957826684,
        "RAAN(deg)": 264.9905496093499,
        "Satellite Name": "Constellation 1 1176",
        "Satellite Number": 1176,
        "Semi-Major Axis(m)": 7083131.272910544,
        "Time(s)": 167
    },
    {
        "Altitude(m)": 702988.5582757272,
        "Argument of Periapsis(deg)": 0.010071265049228144,
        "Eccentricity": 0.0,
        "Inclination(deg)": 45.0,
        "Latitude(deg)": 4.313494979410985,
        "Longitude(deg)": -19.983233018469477,
        "Mean Anomaly(deg)": -186.1658084380169,
        "RAAN(deg)": 264.9904930201843,
        "Satellite Name": "Constellation 1 1176",
        "Satellite Number": 1176,
        "Semi-Major Axis(m)": 7083131.272910544,
        "Time(s)": 168
    },
    {
        "Altitude(m)": 702992.0965007051,
        "Argument of Periapsis(deg)": 0.01013121305547355,
        "Eccentricity": 0.0,
        "Inclination(deg)": 45.0,
        "Latitude(deg)": 4.2703961669121435,
        "Longitude(deg)": -19.94423831899859,
        "Mean Anomaly(deg)": -186.105107297767,
        "RAAN(deg)": 264.99043643101874,
        "Satellite Name": "Constellation 1 1176",
        "Satellite Number": 1176,
        "Semi-Major Axis(m)": 7083131.272910544,
        "Time(s)": 169
    },
    {
        "Altitude(m)": 702995.6555410889,
        "Argument of Periapsis(deg)": 0.010191161061718957,
        "Eccentricity": 0.0,
        "Inclination(deg)": 45.0,
        "Latitude(deg)": 4.227294940832189,
        "Longitude(deg)": -19.905248483578315,
        "Mean Anomaly(deg)": -186.04440615751716,
        "RAAN(deg)": 264.9903798418532,
        "Satellite Name": "Constellation 1 1176",
        "Satellite Number": 1176,
        "Semi-Major Axis(m)": 7083131.272910544,
        "Time(s)": 170
    }
]